{
  "type": "FeatureCollection",
  "features": [
    {
      "type": "Feature",
      "properties": {
        "norad_id": 66652,
        "name": "2025-274C",
        "group": "last-30-days",
        "lat": -56.9061690670427,
        "lon": 72.52664775999781,
        "alt_km": 595.3488419888099,
        "timestamp": "2025-12-03T04:52:28.422029+00:00",
        "meta_object_name": "2025-274C",
        "meta_object_id": "2025-274C",
        "meta_epoch": "2025-12-02T18:09:10.375776",
        "meta_mean_motion": 14.91818929,
        "meta_eccentricity": 0.0010526,
        "meta_inclination": 97.738,
        "meta_ra_of_asc_node": 264.1303,
        "meta_arg_of_pericenter": 296.1312,
        "meta_mean_anomaly": 63.8824,
        "meta_ephemeris_type": 0,
        "meta_classification_type": "U",
        "meta_norad_cat_id": 66652,
        "meta_element_set_no": 999,
        "meta_rev_at_epoch": 91,
        "meta_bstar": 0.00039654,
        "meta_mean_motion_dot": 3.95e-05,
        "meta_mean_motion_ddot": 0,
        "tle_line1": "1 66652U 25274C   25336.75637009  .00003950  00000+0  39654-3 0  9997",
        "tle_line2": "2 66652  97.7380 264.1303 0010526 296.1312  63.8824 14.91818929   911"
      },
      "geometry": {
        "type": "Point",
        "coordinates": [
          72.52664775999781,
          -56.9061690670427
        ]
      }
    },
    {
      "type": "Feature",
      "properties": {
        "norad_id": 66653,
        "name": "2025-274D",
        "group": "last-30-days",
        "lat": -57.082396105940006,
        "lon": 72.44441665529342,
        "alt_km": 594.4642405473942,
        "timestamp": "2025-12-03T04:52:28.422041+00:00",
        "meta_object_name": "2025-274D",
        "meta_object_id": "2025-274D",
        "meta_epoch": "2025-12-02T02:03:15.458976",
        "meta_mean_motion": 14.91817003,
        "meta_eccentricity": 0.00114739,
        "meta_inclination": 97.7373,
        "meta_ra_of_asc_node": 263.4712,
        "meta_arg_of_pericenter": 293.8442,
        "meta_mean_anomaly": 66.1574,
        "meta_ephemeris_type": 0,
        "meta_classification_type": "U",
        "meta_norad_cat_id": 66653,
        "meta_element_set_no": 999,
        "meta_rev_at_epoch": 81,
        "meta_bstar": 0.00016079552,
        "meta_mean_motion_dot": 1.568e-05,
        "meta_mean_motion_ddot": 0,
        "tle_line1": "1 66653U 25274D   25336.08559559  .00001568  00000+0  16080-3 0  9998",
        "tle_line2": "2 66653  97.7373 263.4712 0011473 293.8442  66.1574 14.91817003   819"
      },
      "geometry": {
        "type": "Point",
        "coordinates": [
          72.44441665529342,
          -57.082396105940006
        ]
      }
    },
    {
      "type": "Feature",
      "properties": {
        "norad_id": 66654,
        "name": "JACK E",
        "group": "last-30-days",
        "lat": -60.73532554072697,
        "lon": 70.52722749099833,
        "alt_km": 593.5807982104197,
        "timestamp": "2025-12-03T04:52:28.422051+00:00",
        "meta_object_name": "JACK E",
        "meta_object_id": "2025-274E",
        "meta_epoch": "2025-12-02T18:08:10.523904",
        "meta_mean_motion": 14.91990394,
        "meta_eccentricity": 0.0011883,
        "meta_inclination": 97.7381,
        "meta_ra_of_asc_node": 264.1312,
        "meta_arg_of_pericenter": 293.3234,
        "meta_mean_anomaly": 66.6734,
        "meta_ephemeris_type": 0,
        "meta_classification_type": "U",
        "meta_norad_cat_id": 66654,
        "meta_element_set_no": 999,
        "meta_rev_at_epoch": 91,
        "meta_bstar": 0.00046225,
        "meta_mean_motion_dot": 4.635e-05,
        "meta_mean_motion_ddot": 0,
        "tle_line1": "1 66654U 25274E   25336.75567736  .00004635  00000+0  46225-3 0  9991",
        "tle_line2": "2 66654  97.7381 264.1312 0011883 293.3234  66.6734 14.91990394   911"
      },
      "geometry": {
        "type": "Point",
        "coordinates": [
          70.52722749099833,
          -60.73532554072697
        ]
      }
    },
    {
      "type": "Feature",
      "properties": {
        "norad_id": 66655,
        "name": "2025-274F",
        "group": "last-30-days",
        "lat": -63.815536491224925,
        "lon": 68.52458193296762,
        "alt_km": 596.8846479045442,
        "timestamp": "2025-12-03T04:52:28.422061+00:00",
        "meta_object_name": "2025-274F",
        "meta_object_id": "2025-274F",
        "meta_epoch": "2025-12-02T19:43:59.472768",
        "meta_mean_motion": 14.92215441,
        "meta_eccentricity": 0.0007841,
        "meta_inclination": 97.7354,
        "meta_ra_of_asc_node": 264.1978,
        "meta_arg_of_pericenter": 321.8361,
        "meta_mean_anomaly": 38.2302,
        "meta_ephemeris_type": 0,
        "meta_classification_type": "U",
        "meta_norad_cat_id": 66655,
        "meta_element_set_no": 999,
        "meta_rev_at_epoch": 92,
        "meta_bstar": 0.00045936,
        "meta_mean_motion_dot": 4.629e-05,
        "meta_mean_motion_ddot": 0,
        "tle_line1": "1 66655U 25274F   25336.82221612  .00004629  00000+0  45936-3 0  9991",
        "tle_line2": "2 66655  97.7354 264.1978 0007841 321.8361  38.2302 14.92215441   928"
      },
      "geometry": {
        "type": "Point",
        "coordinates": [
          68.52458193296762,
          -63.815536491224925
        ]
      }
    },
    {
      "type": "Feature",
      "properties": {
        "norad_id": 66656,
        "name": "2025-274G",
        "group": "last-30-days",
        "lat": -64.73439959648935,
        "lon": 67.82806809777516,
        "alt_km": 592.4798580847091,
        "timestamp": "2025-12-03T04:52:28.422071+00:00",
        "meta_object_name": "2025-274G",
        "meta_object_id": "2025-274G",
        "meta_epoch": "2025-12-02T18:07:07.626432",
        "meta_mean_motion": 14.92171724,
        "meta_eccentricity": 0.0012529,
        "meta_inclination": 97.7379,
        "meta_ra_of_asc_node": 264.132,
        "meta_arg_of_pericenter": 294.8447,
        "meta_mean_anomaly": 65.1469,
        "meta_ephemeris_type": 0,
        "meta_classification_type": "U",
        "meta_norad_cat_id": 66656,
        "meta_element_set_no": 999,
        "meta_rev_at_epoch": 91,
        "meta_bstar": 0.00050952,
        "meta_mean_motion_dot": 5.14e-05,
        "meta_mean_motion_ddot": 0,
        "tle_line1": "1 66656U 25274G   25336.75494938  .00005140  00000+0  50952-3 0  9990",
        "tle_line2": "2 66656  97.7379 264.1320 0012529 294.8447  65.1469 14.92171724   917"
      },
      "geometry": {
        "type": "Point",
        "coordinates": [
          67.82806809777516,
          -64.73439959648935
        ]
      }
    },
    {
      "type": "Feature",
      "properties": {
        "norad_id": 66657,
        "name": "SPIRONE",
        "group": "last-30-days",
        "lat": -68.65089360889921,
        "lon": 64.21738699404284,
        "alt_km": 594.265883109857,
        "timestamp": "2025-12-03T04:52:28.422083+00:00",
        "meta_object_name": "SPIRONE",
        "meta_object_id": "2025-274H",
        "meta_epoch": "2025-12-02T18:06:05.588640",
        "meta_mean_motion": 14.92352137,
        "meta_eccentricity": 0.0011175,
        "meta_inclination": 97.7377,
        "meta_ra_of_asc_node": 264.1328,
        "meta_arg_of_pericenter": 314.0139,
        "meta_mean_anomaly": 46.0159,
        "meta_ephemeris_type": 0,
        "meta_classification_type": "U",
        "meta_norad_cat_id": 66657,
        "meta_element_set_no": 999,
        "meta_rev_at_epoch": 91,
        "meta_bstar": 0.0005054,
        "meta_mean_motion_dot": 5.119e-05,
        "meta_mean_motion_ddot": 0,
        "tle_line1": "1 66657U 25274H   25336.75423135  .00005119  00000+0  50540-3 0  9991",
        "tle_line2": "2 66657  97.7377 264.1328 0011175 314.0139  46.0159 14.92352137   916"
      },
      "geometry": {
        "type": "Point",
        "coordinates": [
          64.21738699404284,
          -68.65089360889921
        ]
      }
    },
    {
      "type": "Feature",
      "properties": {
        "norad_id": 66658,
        "name": "2025-274J",
        "group": "last-30-days",
        "lat": -72.40945645053127,
        "lon": 59.17957704791035,
        "alt_km": 593.3863694884367,
        "timestamp": "2025-12-03T04:52:28.422093+00:00",
        "meta_object_name": "2025-274J",
        "meta_object_id": "2025-274J",
        "meta_epoch": "2025-12-02T18:05:03.706368",
        "meta_mean_motion": 14.92526864,
        "meta_eccentricity": 0.0011783,
        "meta_inclination": 97.7377,
        "meta_ra_of_asc_node": 264.1337,
        "meta_arg_of_pericenter": 316.7606,
        "meta_mean_anomaly": 43.2687,
        "meta_ephemeris_type": 0,
        "meta_classification_type": "U",
        "meta_norad_cat_id": 66658,
        "meta_element_set_no": 999,
        "meta_rev_at_epoch": 91,
        "meta_bstar": 0.00048001,
        "meta_mean_motion_dot": 4.881e-05,
        "meta_mean_motion_ddot": 0,
        "tle_line1": "1 66658U 25274J   25336.75351512  .00004881  00000+0  48001-3 0  9995",
        "tle_line2": "2 66658  97.7377 264.1337 0011783 316.7606  43.2687 14.92526864   915"
      },
      "geometry": {
        "type": "Point",
        "coordinates": [
          59.17957704791035,
          -72.40945645053127
        ]
      }
    }
  ]
}